[{"OBJECT_NAME":"STARLINK-4187","OBJECT_ID":"2022-062W","EPOCH":"2026-03-09T06:53:54.085056","MEAN_MOTION":15.08839208,"ECCENTRICITY":0.00014375,"INCLINATION":53.2184,"RA_OF_ASC_NODE":36.2847,"ARG_OF_PERICENTER":89.146,"MEAN_ANOMALY":270.9696,"EPHEMERIS_TYPE":0,"CLASSIFICATION_TYPE":"U","NORAD_CAT_ID":52850,"ELEMENT_SET_NO":999,"REV_AT_EPOCH":20572,"BSTAR":-5.462073e-5,"MEAN_MOTION_DOT":-1.157e-5,"MEAN_MOTION_DDOT":0},{"OBJECT_NAME":"COSMOS 374 DEB","OBJECT_ID":"1970-089D","EPOCH":"2026-03-09T23:15:59.694624","MEAN_MOTION":14.41356541,"ECCENTRICITY":0.03141885,"INCLINATION":62.9412,"RA_OF_ASC_NODE":312.2031,"ARG_OF_PERICENTER":321.7041,"MEAN_ANOMALY":36.2082,"EPHEMERIS_TYPE":0,"CLASSIFICATION_TYPE":"U","NORAD_CAT_ID":4617,"ELEMENT_SET_NO":999,"REV_AT_EPOCH":75367,"BSTAR":0.00087541889,"MEAN_MOTION_DOT":4.985e-5,"MEAN_MOTION_DDOT":0}]
